[{"OBJECT_NAME":"STARLINK-30246","OBJECT_ID":"2023-119P","EPOCH":"2026-03-09T22:00:01.999584","MEAN_MOTION":15.14425651,"ECCENTRICITY":8.476e-5,"INCLINATION":43.0007,"RA_OF_ASC_NODE":79.6807,"ARG_OF_PERICENTER":286.3854,"MEAN_ANOMALY":231.2681,"EPHEMERIS_TYPE":0,"CLASSIFICATION_TYPE":"U","NORAD_CAT_ID":57615,"ELEMENT_SET_NO":999,"REV_AT_EPOCH":557,"BSTAR":0.063371343,"MEAN_MOTION_DOT":0.01283812,"MEAN_MOTION_DDOT":0},{"OBJECT_NAME":"TRANSPORTER-15 OBJECT K","OBJECT_ID":"2025-276K","EPOCH":"2026-03-09T18:17:24.455904","MEAN_MOTION":15.1897842,"ECCENTRICITY":0.00057003,"INCLINATION":97.4243,"RA_OF_ASC_NODE":143.9558,"ARG_OF_PERICENTER":6.9635,"MEAN_ANOMALY":353.1678,"EPHEMERIS_TYPE":0,"CLASSIFICATION_TYPE":"U","NORAD_CAT_ID":66675,"ELEMENT_SET_NO":999,"REV_AT_EPOCH":1532,"BSTAR":0.00057838565,"MEAN_MOTION_DOT":0.00012043,"MEAN_MOTION_DDOT":0}]
